CTC2_L_00333001-01
1 39113U 23341MO  26037.47793981  .00000000  00000+0  00000-0 0  9995
2 39113  80.0000   0.0000 0000000   0.0000   0.0000 13.56072426    14
CTC2_L_00333001-02
1 39114U 22596UU  26037.47793981  .00000000  00000+0  00000-0 0  9997
2 39114  80.0000   0.0000 0000000   0.0000  90.0000 13.56072426    14
CTC2_L_00333001-03
1 39115U 26204H   26037.47793981  .00000000  00000+0  00000-0 0  9998
2 39115  80.0000   0.0000 0000000   0.0000 180.0000 13.56072426    15
CTC2_L_00333001-04
1 39116U 26236AE  26037.47793981  .00000000  00000+0  00000-0 0  9994
2 39116  80.0000   0.0000 0000000   0.0000 270.0000 13.56072426    16
CTC2_L_00333002-01
1 39117U 23120LW  26037.47793981  .00000000  00000+0  00000-0 0  9994
2 39117  80.0000  12.0000 0000000   0.0000  12.0000 13.56072426    14
CTC2_L_00333002-02
1 39118U 23075AG  26037.47793981  .00000000  00000+0  00000-0 0  9994
2 39118  80.0000  12.0000 0000000   0.0000 102.0000 13.56072426    15
CTC2_L_00333002-03
1 39119U 24683YX  26037.47793981  .00000000  00000+0  00000-0 0  9991
2 39119  80.0000  12.0000 0000000   0.0000 192.0000 13.56072426    15
CTC2_L_00333002-04
1 39120U 24691WX  26037.47793981  .00000000  00000+0  00000-0 0  9992
2 39120  80.0000  12.0000 0000000   0.0000 282.0000 13.56072426    17
CTC2_L_00333003-01
1 39121U 23828CR  26037.47793981  .00000000  00000+0  00000-0 0  9994
2 39121  80.0000  24.0000 0000000   0.0000  24.0000 13.56072426    15
CTC2_L_00333003-02
1 39122U 23177KR  26037.47793981  .00000000  00000+0  00000-0 0  9992
2 39122  80.0000  24.0000 0000000   0.0000 114.0000 13.56072426    16
CTC2_L_00333003-03
1 39123U 22857MM  26037.47793981  .00000000  00000+0  00000-0 0  9997
2 39123  80.0000  24.0000 0000000   0.0000 204.0000 13.56072426    17
CTC2_L_00333003-04
1 39124U 22016LH  26037.47793981  .00000000  00000+0  00000-0 0  9995
2 39124  80.0000  24.0000 0000000   0.0000 294.0000 13.56072426    17
CTC2_L_00333004-01
1 39125U 22783RV  26037.47793981  .00000000  00000+0  00000-0 0  9997
2 39125  80.0000  36.0000 0000000   0.0000  36.0000 13.56072426    15
CTC2_L_00333004-02
1 39126U 25560EL  26037.47793981  .00000000  00000+0  00000-0 0  9994
2 39126  80.0000  36.0000 0000000   0.0000 126.0000 13.56072426    16
CTC2_L_00333004-03
1 39127U 22992SX  26037.47793981  .00000000  00000+0  00000-0 0  9991
2 39127  80.0000  36.0000 0000000   0.0000 216.0000 13.56072426    17
CTC2_L_00333004-04
1 39128U 23246FY  26037.47793981  .00000000  00000+0  00000-0 0  9995
2 39128  80.0000  36.0000 0000000   0.0000 306.0000 13.56072426    18
CTC2_L_00333005-01
1 39129U 25193I   26037.47793981  .00000000  00000+0  00000-0 0  9999
2 39129  80.0000  48.0000 0000000   0.0000  48.0000 13.56072426    15
CTC2_L_00333005-02
1 39130U 22943FO  26037.47793981  .00000000  00000+0  00000-0 0  9991
2 39130  80.0000  48.0000 0000000   0.0000 138.0000 13.56072426    17
CTC2_L_00333005-03
1 39131U 26832WY  26037.47793981  .00000000  00000+0  00000-0 0  9993
2 39131  80.0000  48.0000 0000000   0.0000 228.0000 13.56072426    18
CTC2_L_00333005-04
1 39132U 26580OI  26037.47793981  .00000000  00000+0  00000-0 0  9994
2 39132  80.0000  48.0000 0000000   0.0000 318.0000 13.56072426    19
CTC2_L_00333006-01
1 39133U 24442MR  26037.47793981  .00000000  00000+0  00000-0 0  9990
2 39133  80.0000  60.0000 0000000   0.0000  60.0000 13.56072426    18
CTC2_L_00333006-02
1 39134U 26252HA  26037.47793981  .00000000  00000+0  00000-0 0  9992
2 39134  80.0000  60.0000 0000000   0.0000 150.0000 13.56072426    19
CTC2_L_00333006-03
1 39135U 26038VG  26037.47793981  .00000000  00000+0  00000-0 0  9995
2 39135  80.0000  60.0000 0000000   0.0000 240.0000 13.56072426    10
CTC2_L_00333006-04
1 39136U 22217DK  26037.47793981  .00000000  00000+0  00000-0 0  9991
2 39136  80.0000  60.0000 0000000   0.0000 330.0000 13.56072426    11
CTC2_L_00333007-01
1 39137U 22867PS  26037.47793981  .00000000  00000+0  00000-0 0  9993
2 39137  80.0000  72.0000 0000000   0.0000  72.0000 13.56072426    18
CTC2_L_00333007-02
1 39138U 24978PU  26037.47793981  .00000000  00000+0  00000-0 0  9999
2 39138  80.0000  72.0000 0000000   0.0000 162.0000 13.56072426    19
CTC2_L_00333007-03
1 39139U 25443XX  26037.47793981  .00000000  00000+0  00000-0 0  9998
2 39139  80.0000  72.0000 0000000   0.0000 252.0000 13.56072426    10
CTC2_L_00333007-04
1 39140U 26416JO  26037.47793981  .00000000  00000+0  00000-0 0  9991
2 39140  80.0000  72.0000 0000000   0.0000 342.0000 13.56072426    12
CTC2_L_00333008-01
1 39141U 22730FK  26037.47793981  .00000000  00000+0  00000-0 0  9997
2 39141  80.0000  84.0000 0000000   0.0000  84.0000 13.56072426    19
CTC2_L_00333008-02
1 39142U 25780UB  26037.47793981  .00000000  00000+0  00000-0 0  9996
2 39142  80.0000  84.0000 0000000   0.0000 174.0000 13.56072426    10
CTC2_L_00333008-03
1 39143U 25805IU  26037.47793981  .00000000  00000+0  00000-0 0  9995
2 39143  80.0000  84.0000 0000000   0.0000 264.0000 13.56072426    11
CTC2_L_00333008-04
1 39144U 24466TM  26037.47793981  .00000000  00000+0  00000-0 0  9998
2 39144  80.0000  84.0000 0000000   0.0000 354.0000 13.56072426    12
CTC2_L_00333009-01
1 39145U 25947YV  26037.47793981  .00000000  00000+0  00000-0 0  9994
2 39145  80.0000  96.0000 0000000   0.0000  96.0000 13.56072426    19
CTC2_L_00333009-02
1 39146U 23268RE  26037.47793981  .00000000  00000+0  00000-0 0  9999
2 39146  80.0000  96.0000 0000000   0.0000 186.0000 13.56072426    10
CTC2_L_00333009-03
1 39147U 26397MA  26037.47793981  .00000000  00000+0  00000-0 0  9996
2 39147  80.0000  96.0000 0000000   0.0000 276.0000 13.56072426    11
CTC2_L_00333009-04
1 39148U 23014PY  26037.47793981  .00000000  00000+0  00000-0 0  9990
2 39148  80.0000  96.0000 0000000   0.0000   6.0000 13.56072426    13
CTC2_L_00333010-01
1 39149U 24174M   26037.47793981  .00000000  00000+0  00000-0 0  9999
2 39149  80.0000 108.0000 0000000   0.0000 108.0000 13.56072426    11
CTC2_L_00333010-02
1 39150U 22060LF  26037.47793981  .00000000  00000+0  00000-0 0  9993
2 39150  80.0000 108.0000 0000000   0.0000 198.0000 13.56072426    12
CTC2_L_00333010-03
1 39151U 23069DY  26037.47793981  .00000000  00000+0  00000-0 0  9994
2 39151  80.0000 108.0000 0000000   0.0000 288.0000 13.56072426    13
CTC2_L_00333010-04
1 39152U 25961AI  26037.47793981  .00000000  00000+0  00000-0 0  9998
2 39152  80.0000 108.0000 0000000   0.0000  18.0000 13.56072426    15
CTC2_L_00333011-01
1 39153U 25252OS  26037.47793981  .00000000  00000+0  00000-0 0  9992
2 39153  80.0000 120.0000 0000000   0.0000 120.0000 13.56072426    14
CTC2_L_00333011-02
1 39154U 22205CZ  26037.47793981  .00000000  00000+0  00000-0 0  9998
2 39154  80.0000 120.0000 0000000   0.0000 210.0000 13.56072426    15
CTC2_L_00333011-03
1 39155U 22363NQ  26037.47793981  .00000000  00000+0  00000-0 0  9994
2 39155  80.0000 120.0000 0000000   0.0000 300.0000 13.56072426    16
CTC2_L_00333011-04
1 39156U 26231CC  26037.47793981  .00000000  00000+0  00000-0 0  9993
2 39156  80.0000 120.0000 0000000   0.0000  30.0000 13.56072426    17
CTC2_L_00333012-01
1 39157U 23963LQ  26037.47793981  .00000000  00000+0  00000-0 0  9993
2 39157  80.0000 132.0000 0000000   0.0000 132.0000 13.56072426    14
CTC2_L_00333012-02
1 39158U 22931VG  26037.47793981  .00000000  00000+0  00000-0 0  9998
2 39158  80.0000 132.0000 0000000   0.0000 222.0000 13.56072426    15
CTC2_L_00333012-03
1 39159U 25236VP  26037.47793981  .00000000  00000+0  00000-0 0  9990
2 39159  80.0000 132.0000 0000000   0.0000 312.0000 13.56072426    16
CTC2_L_00333012-04
1 39160U 25975MD  26037.47793981  .00000000  00000+0  00000-0 0  9992
2 39160  80.0000 132.0000 0000000   0.0000  42.0000 13.56072426    18
CTC2_L_00333013-01
1 39161U 25791AL  26037.47793981  .00000000  00000+0  00000-0 0  9999
2 39161  80.0000 144.0000 0000000   0.0000 144.0000 13.56072426    15
CTC2_L_00333013-02
1 39162U 23723C   26037.47793981  .00000000  00000+0  00000-0 0  9993
2 39162  80.0000 144.0000 0000000   0.0000 234.0000 13.56072426    16
CTC2_L_00333013-03
1 39163U 24350SS  26037.47793981  .00000000  00000+0  00000-0 0  9991
2 39163  80.0000 144.0000 0000000   0.0000 324.0000 13.56072426    17
CTC2_L_00333013-04
1 39164U 22874UO  26037.47793981  .00000000  00000+0  00000-0 0  9991
2 39164  80.0000 144.0000 0000000   0.0000  54.0000 13.56072426    18
CTC2_L_00333014-01
1 39165U 25404QP  26037.47793981  .00000000  00000+0  00000-0 0  9994
2 39165  80.0000 156.0000 0000000   0.0000 156.0000 13.56072426    15
CTC2_L_00333014-02
1 39166U 22113QN  26037.47793981  .00000000  00000+0  00000-0 0  9999
2 39166  80.0000 156.0000 0000000   0.0000 246.0000 13.56072426    16
CTC2_L_00333014-03
1 39167U 25572VH  26037.47793981  .00000000  00000+0  00000-0 0  9992
2 39167  80.0000 156.0000 0000000   0.0000 336.0000 13.56072426    17
CTC2_L_00333014-04
1 39168U 26736JJ  26037.47793981  .00000000  00000+0  00000-0 0  9996
2 39168  80.0000 156.0000 0000000   0.0000  66.0000 13.56072426    18
CTC2_L_00333015-01
1 39169U 24362ZY  26037.47793981  .00000000  00000+0  00000-0 0  9990
2 39169  80.0000 168.0000 0000000   0.0000 168.0000 13.56072426    15
CTC2_L_00333015-02
1 39170U 24458BW  26037.47793981  .00000000  00000+0  00000-0 0  9998
2 39170  80.0000 168.0000 0000000   0.0000 258.0000 13.56072426    17
CTC2_L_00333015-03
1 39171U 26370N   26037.47793981  .00000000  00000+0  00000-0 0  9994
2 39171  80.0000 168.0000 0000000   0.0000 348.0000 13.56072426    18
CTC2_L_00333015-04
1 39172U 26337WG  26037.47793981  .00000000  00000+0  00000-0 0  9998
2 39172  80.0000 168.0000 0000000   0.0000  78.0000 13.56072426    19
CTC2_L_00333016-01
1 39173U 24039YP  26037.47793981  .00000000  00000+0  00000-0 0  9996
2 39173  80.0000 180.0000 0000000   0.0000 180.0000 13.56072426    18
CTC2_L_00333016-02
1 39174U 22472SU  26037.47793981  .00000000  00000+0  00000-0 0  9996
2 39174  80.0000 180.0000 0000000   0.0000 270.0000 13.56072426    19
